NORAD_CAT_ID,OBJECT_NAME,OBJECT_TYPE,EPOCH,MEAN_MOTION,ECCENTRICITY,INCLINATION,RA_OF_ASC_NODE,ARG_OF_PERICENTER,MEAN_ANOMALY,BSTAR,MEAN_MOTION_DOT,MEAN_MOTION_DDOT,TLE_LINE0,TLE_LINE1,TLE_LINE2,SEMIMAJOR_AXIS,PERIOD,APOGEE,PERIGEE,DECAYED
52336.0,STARLINK-3823,PAYLOAD,2023-10-26 06:05:52,15.08842255,0.0001281,53.2146,134.0088,84.9517,275.1621,-1.3264e-05,-4.99e-06,0.0,0 STARLINK-3823,1 52336U 22045F   23299.25408411 -.00000499  00000-0 -13264-4 0  9996,2 52336  53.2146 134.0088 0001281  84.9517 275.1621 15.08842255 84996,6917.873,95.437,540.625,538.852,0.0
52336.0,STARLINK-3823,PAYLOAD,2023-10-26 20:24:21,15.08845773,0.0001344,53.2147,131.3321,83.3451,276.7694,4.8139e-05,4.78e-06,0.0,0 STARLINK-3823,1 52336U 22045F   23299.85024326  .00000478  00000-0  48139-4 0  9995,2 52336  53.2147 131.3321 0001344  83.3451 276.7694 15.08845773 85083,6917.863,95.437,540.658,538.798,0.0
52336.0,STARLINK-3823,PAYLOAD,2023-10-26 21:59:44,15.08846447,0.0001303,53.2143,131.0352,85.8278,274.2863,5.4839e-05,5.85e-06,0.0,0 STARLINK-3823,1 52336U 22045F   23299.91648253  .00000585  00000-0  54839-4 0  9996,2 52336  53.2143 131.0352 0001303  85.8278 274.2863 15.08846447 85090,6917.861,95.437,540.627,538.824,0.0
52336.0,STARLINK-3823,PAYLOAD,2023-10-27 05:56:39,15.08845822,0.0001403,53.2144,129.548,86.3401,273.7752,0.00011338,1.517e-05,0.0,0 STARLINK-3823,1 52336U 22045F   23300.24768334  .00001517  00000-0  11338-3 0  9990,2 52336  53.2144 129.5480 0001403  86.3401 273.7752 15.08845822 85143,6917.863,95.437,540.698,538.757,0.0
52336.0,STARLINK-3823,PAYLOAD,2023-10-27 21:50:31,15.08845821,0.0001405,53.2143,126.5739,97.4979,262.6172,0.00014378,2.001e-05,0.0,0 STARLINK-3823,1 52336U 22045F   23300.91008254  .00002001  00000-0  14378-3 0  9998,2 52336  53.2143 126.5739 0001405  97.4979 262.6172 15.08845821 85244,6917.863,95.437,540.7,538.756,0.0
52336.0,STARLINK-3823,PAYLOAD,2023-10-28 18:30:32,15.08832752,0.0001194,53.2142,122.7074,90.9069,269.206,3.6338e-05,2.9e-06,0.0,0 STARLINK-3823,1 52336U 22045F   23301.77121112  .00000290  00000-0  36338-4 0  9991,2 52336  53.2142 122.7074 0001194  90.9069 269.2060 15.08832752 85378,6917.903,95.438,540.594,538.942,0.0
52336.0,STARLINK-3823,PAYLOAD,2023-10-28 21:41:19,15.08828331,0.0001465,53.2148,122.1126,93.3916,266.7244,0.00020688,3.005e-05,0.0,0 STARLINK-3823,1 52336U 22045F   23301.90369454  .00003005  00000-0  20688-3 0  9996,2 52336  53.2148 122.1126 0001465  93.3916 266.7244 15.08828331 85391,6917.916,95.438,540.795,538.768,0.0
52336.0,STARLINK-3823,PAYLOAD,2023-10-29 05:38:14,15.08840252,0.0001476,53.2153,120.6271,90.2024,269.9138,9.8115e-05,1.274e-05,0.0,0 STARLINK-3823,1 52336U 22045F   23302.23488961  .00001274  00000-0  98115-4 0  9995,2 52336  53.2153 120.6271 0001476  90.2024 269.9138 15.08840252 85448,6917.88,95.438,540.766,538.724,0.0
52336.0,STARLINK-3823,PAYLOAD,2023-10-29 18:21:19,15.08848534,0.0001445,53.2152,118.2474,90.3305,269.7853,0.0002037,2.956e-05,0.0,0 STARLINK-3823,1 52336U 22045F   23302.76480517  .00002956  00000-0  20370-3 0  9997,2 52336  53.2152 118.2474 0001445  90.3305 269.7853 15.08848534 85526,6917.854,95.437,540.719,538.72,0.0
52336.0,STARLINK-3823,PAYLOAD,2023-10-30 11:50:34,15.08841914,0.0001387,53.2147,114.9788,78.7992,281.3156,0.000135,1.861e-05,0.0,0 STARLINK-3823,1 52336U 22045F   23303.49344998  .00001861  00000-0  13500-3 0  9991,2 52336  53.2147 114.9788 0001387  78.7992 281.3156 15.08841914 85631,6917.875,95.437,540.699,538.78,0.0
52336.0,STARLINK-3823,PAYLOAD,2023-10-30 18:12:06,15.08841847,0.0001584,53.2167,113.7873,92.6549,267.4625,0.000148,2.068e-05,0.0,0 STARLINK-3823,1 52336U 22045F   23303.75840994  .00002068  00000-0  14800-3 0  9991,2 52336  53.2167 113.7873 0001584  92.6549 267.4625 15.08841847 85672,6917.875,95.437,540.836,538.644,0.0
52336.0,STARLINK-3823,PAYLOAD,2023-10-31 14:52:07,15.0884103,0.0001455,53.2151,109.9219,89.9313,270.1846,2.5794e-05,1.23e-06,0.0,0 STARLINK-3823,1 52336U 22045F   23304.61953021  .00000123  00000-0  25794-4 0  9998,2 52336  53.2151 109.9219 0001455  89.9313 270.1846 15.08841030 85806,6917.877,95.437,540.749,538.736,0.0
52336.0,STARLINK-3823,PAYLOAD,2023-10-31 18:02:53,15.08842512,0.0001263,53.2156,109.3275,87.6294,272.4842,5.3773e-05,5.68e-06,0.0,0 STARLINK-3823,1 52336U 22045F   23304.75200912  .00000568  00000-0  53773-4 0  9998,2 52336  53.2156 109.3275 0001263  87.6294 272.4842 15.08842512 85826,6917.873,95.437,540.611,538.864,0.0
52336.0,STARLINK-3823,PAYLOAD,2023-11-01 11:32:08,15.08833235,0.0001434,53.2173,106.0579,92.7986,267.317,6.4014e-05,7.31e-06,0.0,0 STARLINK-3823,1 52336U 22045F   23305.48065669  .00000731  00000-0  64014-4 0  9999,2 52336  53.2173 106.0579 0001434  92.7986 267.3170 15.08833235 85932,6917.901,95.438,540.758,538.774,0.0
52336.0,STARLINK-3823,PAYLOAD,2023-11-01 14:42:54,15.08833932,0.0001452,53.2175,105.4633,92.855,267.2608,6.1217e-05,6.86e-06,0.0,0 STARLINK-3823,1 52336U 22045F   23305.61313616  .00000686  00000-0  61217-4 0  9993,2 52336  53.2175 105.4633 0001452  92.8550 267.2608 15.08833932 85957,6917.899,95.438,540.768,538.759,0.0
52336.0,STARLINK-3823,PAYLOAD,2023-11-01 17:53:41,15.08837169,0.0001383,53.218,104.8691,92.8614,267.2536,8.3804e-05,1.046e-05,0.0,0 STARLINK-3823,1 52336U 22045F   23305.74561375  .00001046  00000-0  83804-4 0  9991,2 52336  53.2180 104.8691 0001383  92.8614 267.2536 15.08837169 85972,6917.889,95.438,540.711,538.797,0.0
52336.0,STARLINK-3823,PAYLOAD,2023-11-02 14:33:41,15.08839673,0.0001394,53.2179,101.0031,92.6829,267.4322,8.557e-05,1.074e-05,0.0,0 STARLINK-3823,1 52336U 22045F   23306.60673420  .00001074  00000-0  85570-4 0  9995,2 52336  53.2179 101.0031 0001394  92.6829 267.4322 15.08839673 86108,6917.881,95.438,540.711,538.782,0.0
52336.0,STARLINK-3823,PAYLOAD,2023-11-02 17:44:27,15.08843174,0.0001352,53.2173,100.408,92.5669,267.5478,0.0001105,1.471e-05,0.0,0 STARLINK-3823,1 52336U 22045F   23306.73921140  .00001471  00000-0  11050-3 0  9996,2 52336  53.2173 100.4080 0001352  92.5669 267.5478 15.08843174 86120,6917.871,95.437,540.671,538.8,0.0
52336.0,STARLINK-3823,PAYLOAD,2023-11-03 14:24:29,15.08835139,0.0001373,53.2178,96.5425,85.8392,274.2757,9.592e-05,1.239e-05,0.0,0 STARLINK-3823,1 52336U 22045F   23307.60033860  .00001239  00000-0  95920-4 0  9997,2 52336  53.2178  96.5425 0001373  85.8392 274.2757 15.08835139 86255,6917.895,95.438,540.71,538.81,0.0
52336.0,STARLINK-3823,PAYLOAD,2023-11-03 19:10:38,15.08839688,0.00012,53.2166,95.6497,65.935,294.1767,0.00010263,1.346e-05,0.0,0 STARLINK-3823,1 52336U 22045F   23307.79905546  .00001346  00000-0  10263-3 0  9991,2 52336  53.2166  95.6497 0001200  65.9350 294.1767 15.08839688 86281,6917.881,95.438,540.576,538.916,0.0
52336.0,STARLINK-3823,PAYLOAD,2023-11-04 14:15:16,15.0883749,0.0001417,53.2176,92.082,84.9329,275.1825,6.6944e-05,7.78e-06,0.0,0 STARLINK-3823,1 52336U 22045F   23308.59393917  .00000778  00000-0  66944-4 0  9999,2 52336  53.2176  92.0820 0001417  84.9329 275.1825 15.08837490 86407,6917.888,95.438,540.733,538.773,0.0
52336.0,STARLINK-3823,PAYLOAD,2023-11-04 17:26:02,15.08842712,0.0001339,53.2167,91.4861,87.1608,272.9538,5.2482e-05,5.47e-06,0.0,0 STARLINK-3823,1 52336U 22045F   23308.72641597  .00000547  00000-0  52482-4 0  9990,2 52336  53.2167  91.4861 0001339  87.1608 272.9538 15.08842712 86424,6917.872,95.437,540.663,538.811,0.0
52336.0,STARLINK-3823,PAYLOAD,2023-11-05 02:58:20,15.08847387,0.0001395,53.2171,89.7028,82.7367,277.3784,8.762e-05,1.107e-05,0.0,0 STARLINK-3823,1 52336U 22045F   23309.12385160  .00001107  00000-0  87620-4 0  9991,2 52336  53.2171  89.7028 0001395  82.7367 277.3784 15.08847387 86480,6917.858,95.437,540.688,538.758,0.0
52336.0,STARLINK-3823,PAYLOAD,2023-11-05 14:06:02,15.08851025,0.000148,53.2174,87.6221,82.3129,277.8031,0.00018528,2.663e-05,0.0,0 STARLINK-3823,1 52336U 22045F   23309.58752715  .00002663  00000-0  18528-3 0  9993,2 52336  53.2174  87.6221 0001480  82.3129 277.8031 15.08851025 86554,6917.847,95.437,540.736,538.688,0.0
52336.0,STARLINK-3823,PAYLOAD,2023-11-05 15:41:25,15.0885166,0.00013,53.2155,87.3236,85.2625,274.8515,0.00026247,3.893e-05,0.0,0 STARLINK-3823,1 52336U 22045F   23309.65376915  .00003893  00000-0  26247-3 0  9998,2 52336  53.2155  87.3236 0001300  85.2625 274.8515 15.08851660 86560,6917.845,95.437,540.609,538.81,0.0
52336.0,STARLINK-3823,PAYLOAD,2023-11-06 02:49:06,15.08867668,0.0001406,53.2157,85.2429,81.7669,278.3483,0.00040372,6.148e-05,0.0,0 STARLINK-3823,1 52336U 22045F   23310.11743839  .00006148  00000-0  40372-3 0  9995,2 52336  53.2157  85.2429 0001406  81.7669 278.3483 15.08867668 86635,6917.796,95.436,540.633,538.688,0.0
52336.0,STARLINK-3823,PAYLOAD,2023-11-06 13:56:50,15.08807864,0.0002049,53.2161,83.161,27.6402,332.4699,-0.00061692,-0.00010085,0.0,0 STARLINK-3823,1 52336U 22045F   23310.58114441 -.00010085  00000-0 -61692-3 0  9992,2 52336  53.2161  83.1610 0002049  27.6402 332.4699 15.08807864 86708,6917.979,95.44,541.261,538.426,0.0
52336.0,STARLINK-3823,PAYLOAD,2023-11-06 15:32:14,15.0880066,0.0001471,53.217,82.8635,74.4714,285.6441,-0.00081931,-0.00013289,0.0,0 STARLINK-3823,1 52336U 22045F   23310.64738543 -.00013289  00000-0 -81931-3 0  9991,2 52336  53.2170  82.8635 0001471  74.4714 285.6441 15.08800660 86717,6918.001,95.44,540.883,538.848,0.0
52336.0,STARLINK-3823,PAYLOAD,2023-11-07 12:12:15,15.08806567,0.0001584,53.2169,78.9969,60.6318,299.4832,-0.00030511,-5.136e-05,0.0,0 STARLINK-3823,1 52336U 22045F   23311.50851746 -.00005136  00000-0 -30511-3 0  9998,2 52336  53.2169  78.9969 0001584  60.6318 299.4832 15.08806567 86846,6917.983,95.44,540.943,538.752,0.0
52336.0,STARLINK-3823,PAYLOAD,2023-11-07 13:47:39,15.08812153,0.0001769,53.2171,78.7044,66.5999,293.5179,-0.00011722,-2.152e-05,0.0,0 STARLINK-3823,1 52336U 22045F   23311.57475796 -.00002152  00000-0 -11722-3 0  9990,2 52336  53.2171  78.7044 0001769  66.5999 293.5179 15.08812153 86854,6917.966,95.439,541.054,538.607,0.0
